[{"OBJECT_NAME":"STARLINK-2095","OBJECT_ID":"2021-012BM","EPOCH":"2026-03-10T00:00:02.999808","MEAN_MOTION":15.74200805,"ECCENTRICITY":0.00059989,"INCLINATION":53.0265,"RA_OF_ASC_NODE":345.7098,"ARG_OF_PERICENTER":141.0946,"MEAN_ANOMALY":123.1256,"EPHEMERIS_TYPE":0,"CLASSIFICATION_TYPE":"U","NORAD_CAT_ID":47679,"ELEMENT_SET_NO":999,"REV_AT_EPOCH":596,"BSTAR":0.0014953733,"MEAN_MOTION_DOT":0.00224612,"MEAN_MOTION_DDOT":0},{"OBJECT_NAME":"STARLINK-36675","OBJECT_ID":"2026-022R","EPOCH":"2026-03-09T15:30:53.814816","MEAN_MOTION":15.75174589,"ECCENTRICITY":0.00012223,"INCLINATION":97.2847,"RA_OF_ASC_NODE":102.6452,"ARG_OF_PERICENTER":74.3261,"MEAN_ANOMALY":285.8139,"EPHEMERIS_TYPE":0,"CLASSIFICATION_TYPE":"U","NORAD_CAT_ID":67663,"ELEMENT_SET_NO":999,"REV_AT_EPOCH":554,"BSTAR":0.0011365886,"MEAN_MOTION_DOT":0.00172757,"MEAN_MOTION_DDOT":0}]
